{
  "norad_id": 53571,
  "name": "STARLINK-4584",
  "history": [
    {
      "epoch": "2026-03-28T22:48:44.974656Z",
      "apogee_km": 540.6490450293986,
      "perigee_km": 538.8448608944673,
      "latitude_deg": -1.9051062870905315e-05,
      "longitude_deg": 159.05237969435763,
      "height_km": 540.7047541407519,
      "semi_major_axis_km": 6917.883952961933,
      "eccentricity": 0.0001304,
      "inclination_deg": 53.2185,
      "raan_deg": 327.6034,
      "arg_perigee_deg": 93.9343,
      "mean_anomaly_deg": 266.1798,
      "mean_motion_rev_day": 15.08838834
    },
    {
      "epoch": "2026-03-30T01:50:18.526848Z",
      "apogee_km": 540.7138334319361,
      "perigee_km": 538.7768263795615,
      "latitude_deg": -4.548061786568058e-06,
      "longitude_deg": 107.49817241911481,
      "height_km": 540.7195744458636,
      "semi_major_axis_km": 6917.8823299057485,
      "eccentricity": 0.00014,
      "inclination_deg": 53.2178,
      "raan_deg": 322.5489,
      "arg_perigee_deg": 94.6518,
      "mean_anomaly_deg": 265.4634,
      "mean_motion_rev_day": 15.08839365
    },
    {
      "epoch": "2026-03-30T01:50:18.527712Z",
      "apogee_km": 540.7139026107589,
      "perigee_km": 538.7767572007388,
      "latitude_deg": -5.468515835859308e-06,
      "longitude_deg": 107.49816812489047,
      "height_km": 540.7195800562032,
      "semi_major_axis_km": 6917.8823299057485,
      "eccentricity": 0.00014001,
      "inclination_deg": 53.2178,
      "raan_deg": 322.5489,
      "arg_perigee_deg": 94.6518,
      "mean_anomaly_deg": 265.4634,
      "mean_motion_rev_day": 15.08839365
    },
    {
      "epoch": "2026-03-30T08:11:51.635040Z",
      "apogee_km": 540.730788160291,
      "perigee_km": 538.8498037285235,
      "latitude_deg": 5.930100821040949e-05,
      "longitude_deg": 10.659506469490102,
      "height_km": 540.8237707906021,
      "semi_major_axis_km": 6917.927295944407,
      "eccentricity": 0.00013595,
      "inclination_deg": 53.2172,
      "raan_deg": 321.3593,
      "arg_perigee_deg": 98.4244,
      "mean_anomaly_deg": 261.6903,
      "mean_motion_rev_day": 15.08824654
    },
    {
      "epoch": "2026-03-30T20:54:56.472480Z",
      "apogee_km": 540.6952095844199,
      "perigee_km": 538.8208751016473,
      "latitude_deg": 1.020263018403321e-05,
      "longitude_deg": 176.98820444821652,
      "height_km": 540.729964829173,
      "semi_major_axis_km": 6917.895042343033,
      "eccentricity": 0.00013547,
      "inclination_deg": 53.2175,
      "raan_deg": 318.9805,
      "arg_perigee_deg": 94.6636,
      "mean_anomaly_deg": 265.4511,
      "mean_motion_rev_day": 15.08835206
    },
    {
      "epoch": "2026-03-31T08:02:38.413248Z",
      "apogee_km": 540.6854576954292,
      "perigee_km": 538.8185961626232,
      "latitude_deg": 3.527762650502918e-05,
      "longitude_deg": 7.524946776205063,
      "height_km": 540.6955485718055,
      "semi_major_axis_km": 6917.889026929026,
      "eccentricity": 0.00013493,
      "inclination_deg": 53.2177,
      "raan_deg": 316.899,
      "arg_perigee_deg": 92.9337,
      "mean_anomaly_deg": 267.181,
      "mean_motion_rev_day": 15.08837174
    },
    {
      "epoch": "2026-04-01T20:36:30.773664Z",
      "apogee_km": 540.6772277833697,
      "perigee_km": 538.8260007901863,
      "latitude_deg": -1.1291174235708382e-05,
      "longitude_deg": 170.71419325772425,
      "height_km": 540.5889410814658,
      "semi_major_axis_km": 6917.888614286778,
      "eccentricity": 0.0001338,
      "inclination_deg": 53.218,
      "raan_deg": 310.0581,
      "arg_perigee_deg": 86.3777,
      "mean_anomaly_deg": 273.7368,
      "mean_motion_rev_day": 15.08837309
    }
  ]
}